{"type": "FeatureCollection", "features": [ {"type": "Feature", "properties": {"norad_id": 39778, "name": "IRIDIUM 33 DEB", "group": "iridium-33-debris", "lat": 27.363729062312235, "lon": 46.63979637292248, "alt_km": 705.4278973976761, "timestamp": "2025-12-09T04:51:47.877578+00:00", "meta": {"OBJECT_NAME": "IRIDIUM 33 DEB", "OBJECT_ID": "1997-051AAK", "EPOCH": "2025-12-08T10:34:19.219872", "MEAN_MOTION": 14.54215447, "ECCENTRICITY": 0.00084331, "INCLINATION": 86.3776, "RA_OF_ASC_NODE": 45.0917, "ARG_OF_PERICENTER": 54.5807, "MEAN_ANOMALY": 305.6186, "EPHEMERIS_TYPE": 0, "CLASSIFICATION_TYPE": "U", "NORAD_CAT_ID": 39778, "ELEMENT_SET_NO": 999, "REV_AT_EPOCH": 60630, "BSTAR": 0.0013246298, "MEAN_MOTION_DOT": 5.631e-05, "MEAN_MOTION_DDOT": 0}, "tle": {"line1": "1 39778U 97051AAK 25342.44050023  .00005631  00000+0  13246-2 0  9992", "line2": "2 39778  86.3776  45.0917 0008433  54.5807 305.6186 14.54215447606307"}}, "geometry": {"type": "Point", "coordinates": [46.63979637292248, 27.363729062312235]}}, {"type": "Feature", "properties": {"norad_id": 39781, "name": "IRIDIUM 33 DEB", "group": "iridium-33-debris", "lat": -29.756123746082814, "lon": 81.5168624317852, "alt_km": 793.8460620729111, "timestamp": "2025-12-09T04:51:47.877588+00:00", "meta": {"OBJECT_NAME": "IRIDIUM 33 DEB", "OBJECT_ID": "1997-051AAN", "EPOCH": "2025-12-08T00:53:08.261952", "MEAN_MOTION": 14.20419658, "ECCENTRICITY": 0.01788839, "INCLINATION": 86.3691, "RA_OF_ASC_NODE": 259.9169, "ARG_OF_PERICENTER": 288.2181, "MEAN_ANOMALY": 86.0915, "EPHEMERIS_TYPE": 0, "CLASSIFICATION_TYPE": "U", "NORAD_CAT_ID": 39781, "ELEMENT_SET_NO": 999, "REV_AT_EPOCH": 8040, "BSTAR": 0.0072666805, "MEAN_MOTION_DOT": 0.00018344, "MEAN_MOTION_DDOT": 0}, "tle": {"line1": "1 39781U 97051AAN 25342.03690118  .00018344  00000+0  72667-2 0  9993", "line2": "2 39781  86.3691 259.9169 0178883 288.2181  86.0915 14.20419658 80400"}}, "geometry": {"type": "Point", "coordinates": [81.5168624317852, -29.756123746082814]}}, {"type": "Feature", "properties": {"norad_id": 39783, "name": "IRIDIUM 33 DEB", "group": "iridium-33-debris", "lat": 5.060371605827914, "lon": 76.78073069073993, "alt_km": 473.20333959092386, "timestamp": "2025-12-09T04:51:47.877598+00:00", "meta": {"OBJECT_NAME": "IRIDIUM 33 DEB", "OBJECT_ID": "1997-051AAQ", "EPOCH": "2025-11-16T15:05:40.850592", "MEAN_MOTION": 15.19327111, "ECCENTRICITY": 0.00057535, "INCLINATION": 86.1306, "RA_OF_ASC_NODE": 268.8004, "ARG_OF_PERICENTER": 179.9151, "MEAN_ANOMALY": 1.8316, "EPHEMERIS_TYPE": 0, "CLASSIFICATION_TYPE": "U", "NORAD_CAT_ID": 39783, "ELEMENT_SET_NO": 999, "REV_AT_EPOCH": 60401, "BSTAR": 0.010398125, "MEAN_MOTION_DOT": 0.00226179, "MEAN_MOTION_DDOT": 0}, "tle": {"line1": "1 39783U 97051AAQ 25320.62894503  .00226179  00000+0  10398-1 0  9999", "line2": "2 39783  86.1306 268.8004 0005753 179.9151   1.8316 15.19327111604018"}}, "geometry": {"type": "Point", "coordinates": [76.78073069073993, 5.060371605827914]}}, {"type": "Feature", "properties": {"norad_id": 40996, "name": "IRIDIUM 33 DEB", "group": "iridium-33-debris", "lat": 39.04646400622162, "lon": -179.90618023407237, "alt_km": 573.5649253518595, "timestamp": "2025-12-09T04:51:47.877608+00:00", "meta": {"OBJECT_NAME": "IRIDIUM 33 DEB", "OBJECT_ID": "1997-051ABJ", "EPOCH": "2025-12-08T12:51:56.950848", "MEAN_MOTION": 14.95855822, "ECCENTRICITY": 0.001198, "INCLINATION": 86.351, "RA_OF_ASC_NODE": 3.3722, "ARG_OF_PERICENTER": 75.5398, "MEAN_ANOMALY": 77.9581, "EPHEMERIS_TYPE": 0, "CLASSIFICATION_TYPE": "U", "NORAD_CAT_ID": 40996, "ELEMENT_SET_NO": 999, "REV_AT_EPOCH": 62425, "BSTAR": 0.0030689207, "MEAN_MOTION_DOT": 0.00034483, "MEAN_MOTION_DDOT": 0}, "tle": {"line1": "1 40996U 97051ABJ 25342.53607582  .00034483  00000+0  30689-2 0  9991", "line2": "2 40996  86.3510   3.3722 0011980  75.5398  77.9581 14.95855822624251"}}, "geometry": {"type": "Point", "coordinates": [-179.90618023407237, 39.04646400622162]}}, {"type": "Feature", "properties": {"norad_id": 40998, "name": "IRIDIUM 33 DEB", "group": "iridium-33-debris", "lat": 16.196101707106475, "lon": -125.88483169460432, "alt_km": 740.6264865654712, "timestamp": "2025-12-09T04:51:47.877618+00:00", "meta": {"OBJECT_NAME": "IRIDIUM 33 DEB", "OBJECT_ID": "1997-051ABL", "EPOCH": "2025-12-03T12:06:12.154176", "MEAN_MOTION": 14.45043538, "ECCENTRICITY": 0.00095708, "INCLINATION": 86.3836, "RA_OF_ASC_NODE": 57.6004, "ARG_OF_PERICENTER": 108.6038, "MEAN_ANOMALY": 309.9308, "EPHEMERIS_TYPE": 0, "CLASSIFICATION_TYPE": "U", "NORAD_CAT_ID": 40998, "ELEMENT_SET_NO": 999, "REV_AT_EPOCH": 6548, "BSTAR": 0.00081638604, "MEAN_MOTION_DOT": 2.87e-05, "MEAN_MOTION_DDOT": 0}, "tle": {"line1": "1 40998U 97051ABL 25337.50430734  .00002870  00000+0  81639-3 0  9994", "line2": "2 40998  86.3836  57.6004 0009570 108.6038 309.9308 14.45043538 65487"}}, "geometry": {"type": "Point", "coordinates": [-125.88483169460432, 16.196101707106475]}}, {"type": "Feature", "properties": {"norad_id": 46435, "name": "IRIDIUM 33 DEB", "group": "iridium-33-debris", "lat": -12.68889890856429, "lon": 16.309416110505413, "alt_km": 800.3466769496026, "timestamp": "2025-12-09T04:51:47.877628+00:00", "meta": {"OBJECT_NAME": "IRIDIUM 33 DEB", "OBJECT_ID": "1997-051ABN", "EPOCH": "2025-12-08T08:41:01.195296", "MEAN_MOTION": 14.31888327, "ECCENTRICITY": 0.02102864, "INCLINATION": 86.2835, "RA_OF_ASC_NODE": 195.8323, "ARG_OF_PERICENTER": 290.5462, "MEAN_ANOMALY": 252.8586, "EPHEMERIS_TYPE": 0, "CLASSIFICATION_TYPE": "U", "NORAD_CAT_ID": 46435, "ELEMENT_SET_NO": 999, "REV_AT_EPOCH": 7853, "BSTAR": 0.0090831914, "MEAN_MOTION_DOT": 0.00031152, "MEAN_MOTION_DDOT": 0}, "tle": {"line1": "1 46435U 97051ABN 25342.36181939  .00031152  00000+0  90832-2 0  9995", "line2": "2 46435  86.2835 195.8323 0210286 290.5462 252.8586 14.31888327 78538"}}, "geometry": {"type": "Point", "coordinates": [16.309416110505413, -12.68889890856429]}}, {"type": "Feature", "properties": {"norad_id": 46734, "name": "IRIDIUM 33 DEB", "group": "iridium-33-debris", "lat": -81.96167932864518, "lon": -148.0231423291468, "alt_km": 757.255218328819, "timestamp": "2025-12-09T04:51:47.877638+00:00", "meta": {"OBJECT_NAME": "IRIDIUM 33 DEB", "OBJECT_ID": "1997-051ABR", "EPOCH": "2025-12-03T20:12:35.443296", "MEAN_MOTION": 14.41795233, "ECCENTRICITY": 0.00394426, "INCLINATION": 86.2642, "RA_OF_ASC_NODE": 6.7702, "ARG_OF_PERICENTER": 5.4679, "MEAN_ANOMALY": 171.2392, "EPHEMERIS_TYPE": 0, "CLASSIFICATION_TYPE": "U", "NORAD_CAT_ID": 46734, "ELEMENT_SET_NO": 999, "REV_AT_EPOCH": 62882, "BSTAR": 0.0014594249, "MEAN_MOTION_DOT": 4.83e-05, "MEAN_MOTION_DDOT": 0}, "tle": {"line1": "1 46734U 97051ABR 25337.84207689  .00004830  00000+0  14594-2 0  9999", "line2": "2 46734  86.2642   6.7702 0039442   5.4679 171.2392 14.41795233628829"}}, "geometry": {"type": "Point", "coordinates": [-148.0231423291468, -81.96167932864518]}}, {"type": "Feature", "properties": {"norad_id": 46965, "name": "IRIDIUM 33 DEB", "group": "iridium-33-debris", "lat": 12.984458957409597, "lon": 161.41969953735966, "alt_km": 706.9248103753143, "timestamp": "2025-12-09T04:51:47.877648+00:00", "meta": {"OBJECT_NAME": "IRIDIUM 33 DEB", "OBJECT_ID": "1997-051ABX", "EPOCH": "2025-12-06T23:36:16.318080", "MEAN_MOTION": 14.60228629, "ECCENTRICITY": 0.00188578, "INCLINATION": 86.335, "RA_OF_ASC_NODE": 343.2503, "ARG_OF_PERICENTER": 353.5175, "MEAN_ANOMALY": 35.294, "EPHEMERIS_TYPE": 0, "CLASSIFICATION_TYPE": "U", "NORAD_CAT_ID": 46965, "ELEMENT_SET_NO": 999, "REV_AT_EPOCH": 62184, "BSTAR": 0.0013461013, "MEAN_MOTION_DOT": 6.528e-05, "MEAN_MOTION_DDOT": 0}, "tle": {"line1": "1 46965U 97051ABX 25340.98352220  .00006528  00000+0  13461-2 0  9994", "line2": "2 46965  86.3350 343.2503 0018857 353.5175  35.2940 14.60228629621849"}}, "geometry": {"type": "Point", "coordinates": [161.41969953735966, 12.984458957409597]}}, {"type": "Feature", "properties": {"norad_id": 46971, "name": "IRIDIUM 33 DEB", "group": "iridium-33-debris", "lat": 52.0684303013704, "lon": 150.06770888747434, "alt_km": 573.762226409207, "timestamp": "2025-12-09T04:51:47.877659+00:00", "meta": {"OBJECT_NAME": "IRIDIUM 33 DEB", "OBJECT_ID": "1997-051ACD", "EPOCH": "2025-11-30T18:57:44.502624", "MEAN_MOTION": 14.96904917, "ECCENTRICITY": 0.00065248, "INCLINATION": 86.3392, "RA_OF_ASC_NODE": 338.7285, "ARG_OF_PERICENTER": 8.9727, "MEAN_ANOMALY": 165.6369, "EPHEMERIS_TYPE": 0, "CLASSIFICATION_TYPE": "U", "NORAD_CAT_ID": 46971, "ELEMENT_SET_NO": 999, "REV_AT_EPOCH": 64051, "BSTAR": 0.0032009998, "MEAN_MOTION_DOT": 0.00036919, "MEAN_MOTION_DDOT": 0}, "tle": {"line1": "1 46971U 97051ACD 25334.79009841  .00036919  00000+0  32010-2 0  9999", "line2": "2 46971  86.3392 338.7285 0006524   8.9727 165.6369 14.96904917640518"}}, "geometry": {"type": "Point", "coordinates": [150.06770888747434, 52.0684303013704]}}, {"type": "Feature", "properties": {"norad_id": 46974, "name": "IRIDIUM 33 DEB", "group": "iridium-33-debris", "lat": 83.4650819466319, "lon": 141.2177763142041, "alt_km": 764.2904961897611, "timestamp": "2025-12-09T04:51:47.877670+00:00", "meta": {"OBJECT_NAME": "IRIDIUM 33 DEB", "OBJECT_ID": "1997-051ACG", "EPOCH": "2025-12-08T01:51:35.109216", "MEAN_MOTION": 14.44143429, "ECCENTRICITY": 0.0095872, "INCLINATION": 86.2996, "RA_OF_ASC_NODE": 107.3101, "ARG_OF_PERICENTER": 202.1724, "MEAN_ANOMALY": 157.532, "EPHEMERIS_TYPE": 0, "CLASSIFICATION_TYPE": "U", "NORAD_CAT_ID": 46974, "ELEMENT_SET_NO": 999, "REV_AT_EPOCH": 57441, "BSTAR": 0.006255, "MEAN_MOTION_DOT": 0.00022746, "MEAN_MOTION_DDOT": 0}, "tle": {"line1": "1 46974U 97051ACG 25342.07748969  .00022746  00000+0  62550-2 0  9998", "line2": "2 46974  86.2996 107.3101 0095872 202.1724 157.5320 14.44143429574414"}}, "geometry": {"type": "Point", "coordinates": [141.2177763142041, 83.4650819466319]}}]}